{
  "norad_id": 55472,
  "name": "STARLINK-5705",
  "history": [
    {
      "epoch": "2026-03-28T22:00:01.999584",
      "apogee_km": 537.2135451402419,
      "perigee_km": 535.6092316231698,
      "latitude_deg": 7.697824632328574,
      "longitude_deg": 175.2022217598278,
      "semi_major_axis_km": 6914.548388381706,
      "eccentricity": 0.00011601,
      "inclination_deg": 43.0001,
      "raan_deg": 208.7576,
      "arg_perigee_deg": 273.014,
      "mean_anomaly_deg": 79.579,
      "mean_motion_rev_day": 15.09930757
    },
    {
      "epoch": "2026-03-29T01:12:44.734464",
      "apogee_km": 536.2475161324855,
      "perigee_km": 535.3970991376473,
      "latitude_deg": 31.45111477007503,
      "longitude_deg": -171.9502950401511,
      "semi_major_axis_km": 6913.959307635067,
      "eccentricity": 6.15e-05,
      "inclination_deg": 43.0019,
      "raan_deg": 208.0222,
      "arg_perigee_deg": 346.0382,
      "mean_anomaly_deg": 14.0446,
      "mean_motion_rev_day": 15.10123734
    }
  ]
}